CCSDS_OMM_VERS = 2.0
CREATION_DATE  = 
ORIGINATOR     = 

OBJECT_NAME    = STARLINK-35555
OBJECT_ID      = 2025-259D
CENTER_NAME    = EARTH
REF_FRAME      = TEME
TIME_SYSTEM    = UTC
MEAN_ELEMENT_THEORY = SGP/SGP4

EPOCH          = 2025-11-20T06:00:02.000160
MEAN_MOTION    = 15.87761431
ECCENTRICITY   = .00018985
INCLINATION    = 42.9983
RA_OF_ASC_NODE = 181.0568
ARG_OF_PERICENTER = 276.3570
MEAN_ANOMALY   = 124.7021

EPHEMERIS_TYPE = 0
CLASSIFICATION_TYPE = U
NORAD_CAT_ID   = 66425
ELEMENT_SET_NO = 999
REV_AT_EPOCH   = 266
BSTAR          = -.56754126E-2
MEAN_MOTION_DOT = -.138086E-1
MEAN_MOTION_DDOT = 0

CCSDS_OMM_VERS = 2.0
CREATION_DATE  = 
ORIGINATOR     = 

OBJECT_NAME    = STARLINK-35589
OBJECT_ID      = 2025-259E
CENTER_NAME    = EARTH
REF_FRAME      = TEME
TIME_SYSTEM    = UTC
MEAN_ELEMENT_THEORY = SGP/SGP4

EPOCH          = 2025-11-20T06:00:02.000160
MEAN_MOTION    = 15.87792604
ECCENTRICITY   = .00018993
INCLINATION    = 42.9990
RA_OF_ASC_NODE = 181.0527
ARG_OF_PERICENTER = 273.9790
MEAN_ANOMALY   = 129.1111

EPHEMERIS_TYPE = 0
CLASSIFICATION_TYPE = U
NORAD_CAT_ID   = 66426
ELEMENT_SET_NO = 999
REV_AT_EPOCH   = 266
BSTAR          = -.56812258E-2
MEAN_MOTION_DOT = -.138399E-1
MEAN_MOTION_DDOT = 0

CCSDS_OMM_VERS = 2.0
CREATION_DATE  = 
ORIGINATOR     = 

OBJECT_NAME    = STARLINK-35611
OBJECT_ID      = 2025-259F
CENTER_NAME    = EARTH
REF_FRAME      = TEME
TIME_SYSTEM    = UTC
MEAN_ELEMENT_THEORY = SGP/SGP4

EPOCH          = 2025-11-20T06:00:02.000160
MEAN_MOTION    = 15.87826893
ECCENTRICITY   = .0001919
INCLINATION    = 42.9986
RA_OF_ASC_NODE = 181.0471
ARG_OF_PERICENTER = 275.3628
MEAN_ANOMALY   = 129.7321

EPHEMERIS_TYPE = 0
CLASSIFICATION_TYPE = U
NORAD_CAT_ID   = 66427
ELEMENT_SET_NO = 999
REV_AT_EPOCH   = 266
BSTAR          = -.56985389E-2
MEAN_MOTION_DOT = -.1389779E-1
MEAN_MOTION_DDOT = 0

CCSDS_OMM_VERS = 2.0
CREATION_DATE  = 
ORIGINATOR     = 

OBJECT_NAME    = STARLINK-35610
OBJECT_ID      = 2025-259G
CENTER_NAME    = EARTH
REF_FRAME      = TEME
TIME_SYSTEM    = UTC
MEAN_ELEMENT_THEORY = SGP/SGP4

EPOCH          = 2025-11-20T06:00:02.000160
MEAN_MOTION    = 15.87854090
ECCENTRICITY   = .00019501
INCLINATION    = 42.9985
RA_OF_ASC_NODE = 181.0410
ARG_OF_PERICENTER = 275.1607
MEAN_ANOMALY   = 132.3394

EPHEMERIS_TYPE = 0
CLASSIFICATION_TYPE = U
NORAD_CAT_ID   = 66428
ELEMENT_SET_NO = 999
REV_AT_EPOCH   = 266
BSTAR          = -.57136939E-2
MEAN_MOTION_DOT = -.1394692E-1
MEAN_MOTION_DDOT = 0

CCSDS_OMM_VERS = 2.0
CREATION_DATE  = 
ORIGINATOR     = 

OBJECT_NAME    = STARLINK-35533
OBJECT_ID      = 2025-259H
CENTER_NAME    = EARTH
REF_FRAME      = TEME
TIME_SYSTEM    = UTC
MEAN_ELEMENT_THEORY = SGP/SGP4

EPOCH          = 2025-11-20T06:00:02.000160
MEAN_MOTION    = 15.87880188
ECCENTRICITY   = .00019157
INCLINATION    = 42.9981
RA_OF_ASC_NODE = 181.0346
ARG_OF_PERICENTER = 276.5202
MEAN_ANOMALY   = 133.3204

EPHEMERIS_TYPE = 0
CLASSIFICATION_TYPE = U
NORAD_CAT_ID   = 66429
ELEMENT_SET_NO = 999
REV_AT_EPOCH   = 266
BSTAR          = -.57190452E-2
MEAN_MOTION_DOT = -.1397404E-1
MEAN_MOTION_DDOT = 0

CCSDS_OMM_VERS = 2.0
CREATION_DATE  = 
ORIGINATOR     = 

OBJECT_NAME    = STARLINK-35470
OBJECT_ID      = 2025-259J
CENTER_NAME    = EARTH
REF_FRAME      = TEME
TIME_SYSTEM    = UTC
MEAN_ELEMENT_THEORY = SGP/SGP4

EPOCH          = 2025-11-20T06:00:02.000160
MEAN_MOTION    = 15.87909769
ECCENTRICITY   = .00019393
INCLINATION    = 42.9988
RA_OF_ASC_NODE = 181.0294
ARG_OF_PERICENTER = 276.6443
MEAN_ANOMALY   = 135.5770

EPHEMERIS_TYPE = 0
CLASSIFICATION_TYPE = U
NORAD_CAT_ID   = 66430
ELEMENT_SET_NO = 999
REV_AT_EPOCH   = 266
BSTAR          = -.5741628E-2
MEAN_MOTION_DOT = -.140405E-1
MEAN_MOTION_DDOT = 0

CCSDS_OMM_VERS = 2.0
CREATION_DATE  = 
ORIGINATOR     = 

OBJECT_NAME    = STARLINK-35439
OBJECT_ID      = 2025-259K
CENTER_NAME    = EARTH
REF_FRAME      = TEME
TIME_SYSTEM    = UTC
MEAN_ELEMENT_THEORY = SGP/SGP4

EPOCH          = 2025-11-20T06:00:02.000160
MEAN_MOTION    = 15.87947269
ECCENTRICITY   = .00019273
INCLINATION    = 42.9982
RA_OF_ASC_NODE = 181.0233
ARG_OF_PERICENTER = 276.2984
MEAN_ANOMALY   = 137.9298

EPHEMERIS_TYPE = 0
CLASSIFICATION_TYPE = U
NORAD_CAT_ID   = 66431
ELEMENT_SET_NO = 999
REV_AT_EPOCH   = 266
BSTAR          = -.57691506E-2
MEAN_MOTION_DOT = -.1412217E-1
MEAN_MOTION_DDOT = 0

CCSDS_OMM_VERS = 2.0
CREATION_DATE  = 
ORIGINATOR     = 

OBJECT_NAME    = STARLINK-35446
OBJECT_ID      = 2025-259L
CENTER_NAME    = EARTH
REF_FRAME      = TEME
TIME_SYSTEM    = UTC
MEAN_ELEMENT_THEORY = SGP/SGP4

EPOCH          = 2025-11-20T06:00:02.000160
MEAN_MOTION    = 15.87977877
ECCENTRICITY   = .00019503
INCLINATION    = 42.9981
RA_OF_ASC_NODE = 181.0171
ARG_OF_PERICENTER = 276.7012
MEAN_ANOMALY   = 139.8927

EPHEMERIS_TYPE = 0
CLASSIFICATION_TYPE = U
NORAD_CAT_ID   = 66432
ELEMENT_SET_NO = 999
REV_AT_EPOCH   = 266
BSTAR          = -.57885587E-2
MEAN_MOTION_DOT = -.1418269E-1
MEAN_MOTION_DDOT = 0

CCSDS_OMM_VERS = 2.0
CREATION_DATE  = 
ORIGINATOR     = 

OBJECT_NAME    = STARLINK-35457
OBJECT_ID      = 2025-259M
CENTER_NAME    = EARTH
REF_FRAME      = TEME
TIME_SYSTEM    = UTC
MEAN_ELEMENT_THEORY = SGP/SGP4

EPOCH          = 2025-11-20T06:00:02.000160
MEAN_MOTION    = 15.88009479
ECCENTRICITY   = .00018655
INCLINATION    = 42.9986
RA_OF_ASC_NODE = 181.0122
ARG_OF_PERICENTER = 278.5236
MEAN_ANOMALY   = 140.3707

EPHEMERIS_TYPE = 0
CLASSIFICATION_TYPE = U
NORAD_CAT_ID   = 66433
ELEMENT_SET_NO = 999
REV_AT_EPOCH   = 266
BSTAR          = -.58072594E-2
MEAN_MOTION_DOT = -.1424146E-1
MEAN_MOTION_DDOT = 0

CCSDS_OMM_VERS = 2.0
CREATION_DATE  = 
ORIGINATOR     = 

OBJECT_NAME    = STARLINK-35389
OBJECT_ID      = 2025-259N
CENTER_NAME    = EARTH
REF_FRAME      = TEME
TIME_SYSTEM    = UTC
MEAN_ELEMENT_THEORY = SGP/SGP4

EPOCH          = 2025-11-20T06:00:02.000160
MEAN_MOTION    = 15.88043765
ECCENTRICITY   = .00018902
INCLINATION    = 42.9989
RA_OF_ASC_NODE = 181.0067
ARG_OF_PERICENTER = 277.3582
MEAN_ANOMALY   = 143.7685

EPHEMERIS_TYPE = 0
CLASSIFICATION_TYPE = U
NORAD_CAT_ID   = 66434
ELEMENT_SET_NO = 999
REV_AT_EPOCH   = 266
BSTAR          = -.58311267E-2
MEAN_MOTION_DOT = -.1431394E-1
MEAN_MOTION_DDOT = 0

CCSDS_OMM_VERS = 2.0
CREATION_DATE  = 
ORIGINATOR     = 

OBJECT_NAME    = STARLINK-35502
OBJECT_ID      = 2025-259P
CENTER_NAME    = EARTH
REF_FRAME      = TEME
TIME_SYSTEM    = UTC
MEAN_ELEMENT_THEORY = SGP/SGP4

EPOCH          = 2025-11-20T06:00:02.000160
MEAN_MOTION    = 15.88080722
ECCENTRICITY   = .00018779
INCLINATION    = 42.9987
RA_OF_ASC_NODE = 181.0025
ARG_OF_PERICENTER = 277.2900
MEAN_ANOMALY   = 145.7112

EPHEMERIS_TYPE = 0
CLASSIFICATION_TYPE = U
NORAD_CAT_ID   = 66435
ELEMENT_SET_NO = 999
REV_AT_EPOCH   = 266
BSTAR          = -.58334478E-2
MEAN_MOTION_DOT = -.14342E-1
MEAN_MOTION_DDOT = 0

CCSDS_OMM_VERS = 2.0
CREATION_DATE  = 
ORIGINATOR     = 

OBJECT_NAME    = STARLINK-35501
OBJECT_ID      = 2025-259Q
CENTER_NAME    = EARTH
REF_FRAME      = TEME
TIME_SYSTEM    = UTC
MEAN_ELEMENT_THEORY = SGP/SGP4

EPOCH          = 2025-11-20T06:00:02.000160
MEAN_MOTION    = 15.88158679
ECCENTRICITY   = .00018419
INCLINATION    = 42.9987
RA_OF_ASC_NODE = 180.9918
ARG_OF_PERICENTER = 275.7721
MEAN_ANOMALY   = 151.2763

EPHEMERIS_TYPE = 0
CLASSIFICATION_TYPE = U
NORAD_CAT_ID   = 66436
ELEMENT_SET_NO = 999
REV_AT_EPOCH   = 266
BSTAR          = -.58698874E-2
MEAN_MOTION_DOT = -.144686E-1
MEAN_MOTION_DDOT = 0

