STARLINK-35555          
1 66425U 25259D   25324.25002315 -.01380860  00000+0 -56754-2 0  9996
2 66425  42.9983 181.0568 0001898 276.3570 124.7021 15.87761431  2669
STARLINK-35589          
1 66426U 25259E   25324.25002315 -.01383990  00000+0 -56812-2 0  9999
2 66426  42.9990 181.0527 0001899 273.9790 129.1111 15.87792604  2666
STARLINK-35611          
1 66427U 25259F   25324.25002315 -.01389779  00000+0 -56985-2 0  9992
2 66427  42.9986 181.0471 0001919 275.3628 129.7321 15.87826893  2666
STARLINK-35610          
1 66428U 25259G   25324.25002315 -.01394692  00000+0 -57137-2 0  9993
2 66428  42.9985 181.0410 0001950 275.1607 132.3394 15.87854090  2669
STARLINK-35533          
1 66429U 25259H   25324.25002315 -.01397404  00000+0 -57190-2 0  9997
2 66429  42.9981 181.0346 0001915 276.5202 133.3204 15.87880188  2669
STARLINK-35470          
1 66430U 25259J   25324.25002315 -.01404050  00000+0 -57416-2 0  9996
2 66430  42.9988 181.0294 0001939 276.6443 135.5770 15.87909769  2663
STARLINK-35439          
1 66431U 25259K   25324.25002315 -.01412217  00000+0 -57692-2 0  9997
2 66431  42.9982 181.0233 0001927 276.2984 137.9298 15.87947269  2662
STARLINK-35446          
1 66432U 25259L   25324.25002315 -.01418269  00000+0 -57886-2 0  9996
2 66432  42.9981 181.0171 0001950 276.7012 139.8927 15.87977877  2664
STARLINK-35457          
1 66433U 25259M   25324.25002315 -.01424146  00000+0 -58073-2 0  9997
2 66433  42.9986 181.0122 0001865 278.5236 140.3707 15.88009479  2667
STARLINK-35389          
1 66434U 25259N   25324.25002315 -.01431394  00000+0 -58311-2 0  9996
2 66434  42.9989 181.0067 0001890 277.3582 143.7685 15.88043765  2666
STARLINK-35502          
1 66435U 25259P   25324.25002315 -.01434200  00000+0 -58334-2 0  9991
2 66435  42.9987 181.0025 0001877 277.2900 145.7112 15.88080722  2668
STARLINK-35501          
1 66436U 25259Q   25324.25002315 -.01446860  00000+0 -58699-2 0  9991
2 66436  42.9987 180.9918 0001841 275.7721 151.2763 15.88158679  2664
